AEHF-2 (USA 235)        
1 38254U 12019A   25244.23603964 -.00000132  00000+0  00000+0 0  9990
2 38254   5.9774  59.4734 0002875 110.2229 239.4371  1.00270688  4080
TIANHUI 1-02            
1 38256U 12020A   25244.32469234  .00056844  00000+0  48740-3 0  9991
2 38256  97.6210  71.4471 0006440  49.1286 311.0532 15.69214030742750
YAOGAN-14               
1 38257U 12021A   25244.28713005  .00009072  00000+0  38323-3 0  9993
2 38257  97.2646  24.1807 0005260 140.7351 219.4268 15.23456631741771
JCSAT-13                
1 38331U 12023A   25244.22266870 -.00000353  00000+0  00000+0 0  9996
2 38331   0.0460 274.9203 0002979 250.0301  19.8507  1.00272022 48643
VINASAT-2               
1 38332U 12023B   25244.26546414 -.00000326  00000+0  00000+0 0  9996
2 38332   0.0467 298.9825 0002170 210.2623  58.8508  1.00272543 43765
GCOM-W1 (SHIZUKU)       
1 38337U 12025A   25244.28849134  .00001214  00000+0  27959-3 0  9992
2 38337  98.2044 183.9242 0001539  84.9689  35.7539 14.57105573706962
ARIRANG-3 (KOMPSAT-3)   
1 38338U 12025B   25244.32948244  .00001085  00000+0  22840-3 0  9990
2 38338  98.3123 198.2663 0004609 291.5880  68.4830 14.61509599709149
SDS-4                   
1 38339U 12025C   25244.28615126  .00002077  00000+0  31641-3 0  9997
2 38339  98.1451 333.4392 0007832 135.4172 224.7668 14.74998790713381
NIMIQ 6                 
1 38342U 12026A   25244.22121957 -.00000171  00000+0  00000+0 0  9995
2 38342   0.0565 281.6318 0002777 235.1485 172.3921  1.00271706 47514
ZHONGXING-2A            
1 38352U 12028A   25244.11604064 -.00000290  00000+0  00000+0 0  9993
2 38352   0.7001  88.2814 0002677 118.5610 273.7158  1.00271149 48400
YAOGAN-15               
1 38354U 12029A   25244.27216567  .00000002  00000+0  12588-3 0  9998
2 38354 100.7551  78.4336 0024878 224.1281 135.7847 13.18366605637374
INTELSAT 19 (IS-19)     
1 38356U 12030A   25244.18933721  .00000000  00000+0  00000+0 0  9990
2 38356   0.0139 133.1804 0002979  26.9766  54.6034  1.00271276 47552
NUSTAR                  
1 38358U 12031A   25244.25002315  .00008315  00000+0  51763-3 0  9990
2 38358   6.0283  35.1686 0007559 146.9570 315.3452 15.04606653  1308
ECHOSTAR 17             
1 38551U 12035A   25244.21809955 -.00000072  00000+0  00000+0 0  9997
2 38551   0.0022 164.5937 0002186 355.9015 151.5526  1.00271894 48164
METEOSAT-10 (MSG-3)     
1 38552U 12035B   25244.21878186 -.00000003  00000+0  00000+0 0  9994
2 38552   3.9813  61.9378 0000406  26.1048 331.4314  1.00272430 47957
SES-5                   
1 38652U 12036A   25243.95478582  .00000037  00000+0  00000+0 0  9998
2 38652   0.0514 313.8091 0002018 201.5491 173.7183  1.00271521 41569
EXACTVIEW-1 (ADS-1B)    
1 38709U 12039C   25244.29112808  .00000308  00000+0  15184-3 0  9992
2 38709  98.9571 350.5801 0009895 285.4002  74.6083 14.24844452681564
MKA-PN 1                
1 38711U 12039E   25244.25552512  .00000340  00000+0  16436-3 0  9998
2 38711  98.9518 350.1583 0010444 282.7602  77.2409 14.25264193681682
COSMOS 2481             
1 38733U 12041A   25244.28691675  .00000036  00000+0  19082-3 0  9994
2 38733  82.4692 255.3167 0018512 349.6800  10.3897 12.42427134593873
GONETS-M 3              
1 38734U 12041B   25244.31051549  .00000065  00000+0  38908-3 0  9999
2 38734  82.4697 245.7163 0016117 339.6203  20.4232 12.44889426594721
GONETS-M 4              
1 38736U 12041D   25244.27739218  .00000054  00000+0  31248-3 0  9990
2 38736  82.4739 251.2947 0024282 327.7069  32.2524 12.43891509587037
INTELSAT 20 (IS-20)     
1 38740U 12043A   25244.16016946 -.00000021  00000+0  00000+0 0  9994
2 38740   0.0178 136.8676 0001537  46.6313 283.2296  1.00268345 47851
HYLAS 2                 
1 38741U 12043B   25244.22494625 -.00000255  00000+0  00000+0 0  9995
2 38741   1.6741  84.6928 0002318 109.6905 154.6889  1.00271884 47873
EXPRESS-MD2             
1 38745U 12044B   25244.26930044  .00034328  53178-5  65237-3 0  9998
2 38745  49.8299 261.7365 1683669 124.4091 252.7628 12.17694861525212
INTELSAT 21 (IS-21)     
1 38749U 12045A   25244.22780626  .00000000  00000+0  00000+0 0  9991
2 38749   0.0240 124.4415 0001970  35.0791 205.1299  1.00267693 47623
SPOT 6                  
1 38755U 12047A   25244.31707392  .00000681  00000+0  15609-3 0  9999
2 38755  98.1708 310.9101 0001171 103.5064 256.6266 14.58579429690942
SMDC ONE 1.2            
1 38759U 12048B   25244.16153605  .00014417  00000+0  64714-3 0  9992
2 38759  64.6571  38.1400 0136604 259.2031  99.3691 15.13355466 72297
CINEMA                  
1 38764U 12048G   25243.96725553  .00035546  00000+0  10759-2 0  9997
2 38764  64.6523 336.5496 0107227 253.3682 105.5654 15.28454847 72755
AEROCUBE 4.5A           
1 38767U 12048K   25244.24001660  .00043162  00000+0  10158-2 0  9994
2 38767  64.6471 305.7819 0092863 255.9531 103.1266 15.37255477327661
METOP-B                 
1 38771U 12049A   25244.23120448  .00000237  00000+0  12782-3 0  9997
2 38771  98.5701 296.0639 0002064  98.9326 261.2085 14.21479159672217
BEIDOU-2 M6             
1 38775U 12050B   25243.41186050 -.00000012  00000+0  00000+0 0  9991
2 38775  56.2866  72.4935 0011503 357.5209   2.5327  1.86231126 87910
ASTRA 2F                
1 38778U 12051A   25244.24487969  .00000153  00000+0  00000+0 0  9995
2 38778   0.0807 260.3193 0003888 297.7088 258.9692  1.00273675 38230
GSAT-10                 
1 38779U 12051B   25244.15461142 -.00000162  00000+0  00000+0 0  9992
2 38779   0.0945 266.7629 0006779 202.9430   9.5258  1.00271765 47202
VRSS-1                  
1 38782U 12052A   25244.25259286  .00002143  00000+0  29483-3 0  9992
2 38782  97.5843 231.1230 0019718 100.3084 260.0353 14.79119615696880
NAVSTAR 67 (USA 239)    
1 38833U 12053A   25244.14499645 -.00000017  00000+0  00000+0 0  9992
2 38833  53.5431 155.4408 0170710  62.0214 299.7227  2.00564012 93646
GSAT0103 (GALILEO-FM3)  
1 38857U 12055A   25243.11538495  .00000000  00000+0  00000+0 0  9994
2 38857  55.6241 109.5127 0003011 288.2877  71.7662  1.70473649 80062
SJ-9A                   
1 38860U 12056A   25244.24530522  .00002121  00000+0  25568-3 0  9993
2 38860  97.6337 222.4912 0027339 126.1832 234.1918 14.84579996656705
SJ-9B                   
1 38861U 12056B   25243.98086705  .00004789  00000+0  50596-3 0  9994
2 38861  97.5732 234.4365 0017604  96.5789 263.7433 14.89570459696641
INTELSAT 23 (IS-23)     
1 38867U 12057A   25244.23466236 -.00000282  00000+0  00000+0 0  9997
2 38867   0.0580 264.4588 0000644 262.3422 205.3283  1.00271395 47056
BEIDOU-2 G6             
1 38953U 12059A   25244.11318063 -.00000174  00000+0  00000+0 0  9996
2 38953   3.6812  76.5529 0007067 319.4010  69.3306  1.00274236 47016
LUCH-5B                 
1 38977U 12061A   25244.23603964 -.00000134  00000+0  00000+0 0  9991
2 38977   9.8533  52.6666 0006073 145.2565 211.4122  1.00273017 46700
YAMAL 300K              
1 38978U 12061B   25244.27560419  .00000074  00000+0  00000+0 0  9995
2 38978   0.0168 130.5325 0000210 210.9651 281.3613  1.00271158 46737
STAR ONE C3             
1 38991U 12062A   25244.19836354  .00000000  00000+0  00000+0 0  9995
2 38991   0.0232 116.9206 0002274  46.2214 173.8876  1.00271194 46856
EUTELSAT 21B            
1 38992U 12062B   25244.20253098  .00000133  00000+0  00000+0 0  9993
2 38992   0.0718  11.3937 0002535 156.4913 267.2227  1.00272832 46932
ECHOSTAR 16             
1 39008U 12065A   25244.08432050 -.00000279  00000+0  00000+0 0  9990
2 39008   0.0093 136.1901 0002264  13.9487 159.2234  1.00279848 46736
YAOGAN-16 01A           
1 39011U 12066A   25244.29029219 -.00000011  00000+0  80482-4 0  9998
2 39011  63.3581 315.7687 0411588  24.7933 337.2268 13.45464613627276
YAOGAN-16 01B           
1 39012U 12066B   25244.29440749 -.00000029  00000+0  62800-4 0  9997
2 39012  63.3586 315.9659 0411718  24.5421 337.4602 13.45459902627233
YAOGAN-16 01C           
1 39013U 12066C   25244.29238022 -.00000045  00000+0  46291-4 0  9991
2 39013  63.3599 315.4365 0411938  24.1238 337.8487 13.45451210627265
ZHONGXING-12            
1 39017U 12067A   25244.14905913 -.00000204  00000+0  00000+0 0  9990
2 39017   0.0122 187.8257 0002522 333.8802 320.0146  1.00271473 46611
PLEIADES 1B             
1 39019U 12068A   25244.33552332  .00000719  00000+0  16440-3 0  9996
2 39019  98.1901 318.5423 0001178  91.8488 268.2846 14.58564609678749
EUTELSAT 70B            
1 39020U 12069A   25244.11049395 -.00000040  00000+0  00000+0 0  9994
2 39020   0.0678  13.1599 0003571 151.2910 286.3390  1.00272118 46610
YAMAL 402               
1 39022U 12070A   25244.18864304  .00000089  00000+0  00000+0 0  9992
2 39022   0.5163  88.4714 0003590  68.7827 306.1562  1.00271605 46500
GOKTURK 2               
1 39030U 12073A   25244.29429794  .00001024  00000+0  15887-3 0  9999
2 39030  97.7031  90.9307 0001399 112.5103 247.6255 14.75089752681911
SKYNET 5D               
1 39034U 12075A   25244.24955970  .00000102  00000+0  00000+0 0  9993
2 39034   0.0744   9.6747 0003824 160.0432 313.5098  1.00272901 46261
MEXSAT 3                
1 39035U 12075B   25244.21653955 -.00000023  00000+0  00000+0 0  9992
2 39035   0.0171 121.4636 0001700   6.0744 176.2489  1.00274087  4159
COSMOS 2482             
1 39057U 13001A   25244.24011542  .00000044  00000+0  24805-3 0  9994
2 39057  82.4984  40.1293 0026812 295.1432  64.6867 12.42983710572812
COSMOS 2483             
1 39058U 13001B   25244.31431469  .00000022  00000+0  86618-4 0  9994
2 39058  82.5005  34.9496 0015846 283.5489  76.3825 12.44015292565675
COSMOS 2484             
1 39059U 13001C   25244.25276361  .00000035  00000+0  18547-3 0  9995
2 39059  82.5016  41.5548 0025597 304.3144  55.5513 12.42926103572664
TDRS 11                 
1 39070U 13004A   25244.20475284  .00000083  00000+0  00000+0 0  9995
2 39070   3.1241  25.2317 0003790  54.1466 160.5903  1.00268251 43799
